SWARM A                 
1 39452U 13067B   26182.86494685  .00011699  00000+0  19924-3 0  9992
2 39452  87.3307  50.7865 0003234  97.6180 262.5448 15.51231362708529
SWARM C                 
1 39453U 13067C   26182.86484664  .00011717  00000+0  19956-3 0  9995
2 39453  87.3306  49.3673 0003217  97.2824 262.8803 15.51230262708483
BRITE-CA1 (TORONTO)     
1 40020U 14033L   26182.91758358  .00001039  00000+0  16349-3 0  9990
2 40020  97.9758 311.5755 0077570 229.0817 130.3657 14.72701096644382
OCO 2                   
1 40059U 14035A   26182.91938300  .00000437  00000+0  10706-3 0  9993
2 40059  98.2019 123.9882 0001500  82.6936 277.4433 14.57123303638198
BRITE-PL2 (HEWELIUSZ)   
1 40119U 14049B   26182.90090231  .00001755  00000+0  16717-3 0  9998
2 40119  97.9112 295.0154 0015113  63.6454 296.6316 14.94646982643640
MMS 1                   
1 40482U 15011A   26183.00002315 -.00000960  00000+0  00000+0 0  9991
2 40482  72.2705 348.6367 8316980 167.6406  10.0150  0.28328681  1393
MMS 2                   
1 40483U 15011B   26183.00002315 -.00000960  00000+0  00000+0 0  9992
2 40483  72.2742 348.6357 8319789 167.6438  10.0048  0.28328587  1390
MMS 3                   
1 40484U 15011C   26183.00002315 -.00000960  00000+0  00000+0 0  9993
2 40484  72.2747 348.6466 8318128 167.6511   9.9794  0.28329548  1398
MMS 4                   
1 40485U 15011D   26183.00002315 -.00000960  00000+0  00000+0 0  9994
2 40485  72.2703 348.6309 8318068 167.6612   9.9725  0.28328595  1397
ASTROSAT                
1 40930U 15052A   26182.82423738  .00001685  00000+0  12312-3 0  9996
2 40930   5.9977  49.9820 0008539 245.8770 114.0464 14.82532527582009
DAMPE                   
1 41173U 15078A   26182.94139995  .00001063  00000+0  38239-4 0  9993
2 41173  97.4553 188.4808 0012995  31.0087 329.1918 15.30822301586808
PISAT                   
1 41784U 16059B   26182.92499757  .00001048  00000+0  18560-3 0  9991
2 41784  97.8182 182.7446 0029608 155.7051 204.5559 14.69009529521904
HXMT (HUIYAN)           
1 42758U 17034A   26182.93405741  .00004963  00000+0  24385-3 0  9999
2 42758  43.0145 100.9201 0032686 240.0378 119.7224 15.18585715499900
FLYING LAPTOP           
1 42831U 17042G   26182.98307652  .00004938  00000+0  38726-3 0  9993
2 42831  97.4750 337.9527 0019984  74.4276 285.9153 15.01241953488676
ZHANGHENG 1-01 (CSES-1) 
1 43194U 18015C   26182.94228245  .00009242  00000+0  41811-3 0  9995
2 43194  97.6881 348.8948 0017705 211.9856 148.0305 15.21004760466887
SALSAT                  
1 46495U 20068K   26182.92716775  .00008869  00000+0  30791-3 0  9990
2 46495  97.8846 186.8910 0008027 245.2054 114.8351 15.30008157317615
IXPE                    
1 49954U 21121A   26182.91668981  .00010953  00000+0  59193-3 0  9992
2 49954   0.2288 206.3735 0007409 302.0859  40.8863 15.10384925  5840
SMILE                   
1 69123U 26109A   26158.38327019 -.00000041  00000+0 -36778-3 0  9994
2 69123  69.9787 209.3069 3310191 288.5544  45.7342  7.54049028  2480
