OBJECT_NAME,OBJECT_ID,EPOCH,MEAN_MOTION,ECCENTRICITY,INCLINATION,RA_OF_ASC_NODE,ARG_OF_PERICENTER,MEAN_ANOMALY,EPHEMERIS_TYPE,CLASSIFICATION_TYPE,NORAD_CAT_ID,ELEMENT_SET_NO,REV_AT_EPOCH,BSTAR,MEAN_MOTION_DOT,MEAN_MOTION_DDOT
SWARM A,2013-067B,2026-07-01T20:45:31.407840,15.51231362,.0003234,87.3307,50.7865,97.6180,262.5448,0,U,39452,999,70852,.19923973E-3,.11699E-3,0
SWARM C,2013-067C,2026-07-01T20:45:22.749696,15.51230262,.00032174,87.3306,49.3673,97.2824,262.8803,0,U,39453,999,70848,.19955806E-3,.11717E-3,0
BRITE-CA1 (TORONTO),2014-033L,2026-07-01T22:01:19.221312,14.72701096,.00775703,97.9758,311.5755,229.0817,130.3657,0,U,40020,999,64438,.16349302E-3,.1039E-4,0
OCO 2,2014-035A,2026-07-01T22:03:54.691200,14.57123303,.00015009,98.2019,123.9882,82.6936,277.4433,0,U,40059,999,63819,.10706402E-3,.437E-5,0
BRITE-PL2 (HEWELIUSZ),2014-049B,2026-07-01T21:37:17.959584,14.94646982,.00151131,97.9112,295.0154,63.6454,296.6316,0,U,40119,999,64364,.1671651E-3,.1755E-4,0
MMS 1,2015-011A,2026-07-02T00:00:02.000160,0.28328681,.831698,72.2705,348.6367,167.6406,10.0150,0,U,40482,999,139,0,-.96E-5,0
MMS 2,2015-011B,2026-07-02T00:00:02.000160,0.28328587,.83197899,72.2742,348.6357,167.6438,10.0048,0,U,40483,999,139,0,-.96E-5,0
MMS 3,2015-011C,2026-07-02T00:00:02.000160,0.28329548,.83181281,72.2747,348.6466,167.6511,9.9794,0,U,40484,999,139,0,-.96E-5,0
MMS 4,2015-011D,2026-07-02T00:00:02.000160,0.28328595,.83180682,72.2703,348.6309,167.6612,9.9725,0,U,40485,999,139,0,-.96E-5,0
ASTROSAT,2015-052A,2026-07-01T19:46:54.109632,14.82532527,.00085399,5.9977,49.9820,245.8770,114.0464,0,U,40930,999,58200,.12311818E-3,.1685E-4,0
DAMPE,2015-078A,2026-07-01T22:35:36.955680,15.30822301,.00129955,97.4553,188.4808,31.0087,329.1918,0,U,41173,999,58680,.38239295E-4,.1063E-4,0
PISAT,2016-059B,2026-07-01T22:11:59.790048,14.69009529,.0029608,97.8182,182.7446,155.7051,204.5559,0,U,41784,999,52190,.18560471E-3,.1048E-4,0
HXMT (HUIYAN),2017-034A,2026-07-01T22:25:02.560224,15.18585715,.00326864,43.0145,100.9201,240.0378,119.7224,0,U,42758,999,49990,.24385202E-3,.4963E-4,0
FLYING LAPTOP,2017-042G,2026-07-01T23:35:37.811328,15.01241953,.00199841,97.4750,337.9527,74.4276,285.9153,0,U,42831,999,48867,.38725935E-3,.4938E-4,0
ZHANGHENG 1-01 (CSES-1),2018-015C,2026-07-01T22:36:53.203680,15.21004760,.00177056,97.6881,348.8948,211.9856,148.0305,0,U,43194,999,46688,.41811093E-3,.9242E-4,0
SALSAT,2020-068K,2026-07-01T22:15:07.293600,15.30008157,.00080276,97.8846,186.8910,245.2054,114.8351,0,U,46495,999,31761,.30790672E-3,.8869E-4,0
IXPE,2021-121A,2026-07-01T22:00:01.999584,15.10384925,.0007409,0.2288,206.3735,302.0859,40.8863,0,U,49954,999,584,.59193166E-3,.10953E-3,0
SMILE,2026-109A,2026-06-07T09:11:54.544416,7.54049028,.3310191,69.9787,209.3069,288.5544,45.7342,0,U,69123,999,248,-.36778157E-3,-.41E-6,0
